QIANFAN-65              
1 62795U 25016L   26013.13374153  .00000109  00000+0  15091-3 0  9990
2 62795  88.9755  99.8157 0012478 247.2440 112.7393 13.50982763 51485
QIANFAN-66              
1 62796U 25016M   26013.16252267  .00000119  00000+0  16642-3 0  9999
2 62796  88.9774  99.7890 0013685 242.7310 117.2448 13.50987700 51530
QIANFAN-67              
1 62797U 25016N   26013.16667345  .00000114  00000+0  15840-3 0  9991
2 62797  88.9765  99.8111 0013499 250.3388 109.6307 13.50991872 51502
QIANFAN-68              
1 62798U 25016P   26013.15839567  .00000122  00000+0  17112-3 0  9991
2 62798  88.9768  99.8582 0013589 248.4077 111.5626 13.50983790 51484
QIANFAN-69              
1 62799U 25016Q   26013.17484657  .00000116  00000+0  16159-3 0  9993
2 62799  88.9747  99.7192 0014310 249.8430 110.1182 13.50984176 51525
QIANFAN-70              
1 62800U 25016R   26013.19138447  .00000128  00000+0  17971-3 0  9997
2 62800  88.9768  99.8627 0014141 239.1173 120.8588 13.50987971 51482
QIANFAN-71              
1 62801U 25016S   26013.18718993  .00000115  00000+0  15969-3 0  9998
2 62801  88.9762  99.8407 0014154 253.7002 106.2592 13.50987325 51486
QIANFAN-72              
1 62802U 25016T   26013.20363830  .00000116  00000+0  16160-3 0  9993
2 62802  88.9752  99.8492 0017289 262.3026  97.6162 13.50987255 51471
